GLOBALSTAR M093 [+]     
1 39073U 13005B   17345.49953614 -.00000090  00000-0  78868-4 0  9993
2 39073  51.9821 347.2809 0000511 323.8754  36.2078 12.62268022224265
